[{"OBJECT_NAME":"ONEWEB-0352","OBJECT_ID":"2021-083AG","EPOCH":"2025-09-06T06:19:27.579360","MEAN_MOTION":13.13470571,"ECCENTRICITY":0.00012613,"INCLINATION":87.9012,"RA_OF_ASC_NODE":16.6596,"ARG_OF_PERICENTER":101.6677,"MEAN_ANOMALY":258.4594,"EPHEMERIS_TYPE":0,"CLASSIFICATION_TYPE":"U","NORAD_CAT_ID":49216,"ELEMENT_SET_NO":999,"REV_AT_EPOCH":19375,"BSTAR":0.0010286178,"MEAN_MOTION_DOT":3.88e-6,"MEAN_MOTION_DDOT":0},{"OBJECT_NAME":"ONEWEB-0354","OBJECT_ID":"2021-083AH","EPOCH":"2025-09-06T06:32:11.738976","MEAN_MOTION":13.20772423,"ECCENTRICITY":0.00020599,"INCLINATION":87.9296,"RA_OF_ASC_NODE":331.0275,"ARG_OF_PERICENTER":106.6442,"MEAN_ANOMALY":253.4918,"EPHEMERIS_TYPE":0,"CLASSIFICATION_TYPE":"U","NORAD_CAT_ID":49217,"ELEMENT_SET_NO":999,"REV_AT_EPOCH":19933,"BSTAR":-0.00026998866,"MEAN_MOTION_DOT":-9.7e-7,"MEAN_MOTION_DDOT":0},{"OBJECT_NAME":"ONEWEB-0355","OBJECT_ID":"2021-083AJ","EPOCH":"2025-09-06T07:01:05.738592","MEAN_MOTION":13.134682,"ECCENTRICITY":0.00016001,"INCLINATION":87.9028,"RA_OF_ASC_NODE":16.6583,"ARG_OF_PERICENTER":105.2617,"MEAN_ANOMALY":254.8689,"EPHEMERIS_TYPE":0,"CLASSIFICATION_TYPE":"U","NORAD_CAT_ID":49218,"ELEMENT_SET_NO":999,"REV_AT_EPOCH":19363,"BSTAR":-0.00010765279,"MEAN_MOTION_DOT":-2.7e-7,"MEAN_MOTION_DDOT":0},{"OBJECT_NAME":"ONEWEB-0357","OBJECT_ID":"2021-083AK","EPOCH":"2025-09-06T06:27:39.024288","MEAN_MOTION":13.20770446,"ECCENTRICITY":0.00017376,"INCLINATION":87.9287,"RA_OF_ASC_NODE":331.029,"ARG_OF_PERICENTER":103.2482,"MEAN_ANOMALY":256.8846,"EPHEMERIS_TYPE":0,"CLASSIFICATION_TYPE":"U","NORAD_CAT_ID":49219,"ELEMENT_SET_NO":999,"REV_AT_EPOCH":19933,"BSTAR":-0.00079215037,"MEAN_MOTION_DOT":-3.09e-6,"MEAN_MOTION_DDOT":0},{"OBJECT_NAME":"ONEWEB-0332","OBJECT_ID":"2021-090A","EPOCH":"2025-09-06T07:10:59.164032","MEAN_MOTION":13.14503321,"ECCENTRICITY":0.00016488,"INCLINATION":87.9094,"RA_OF_ASC_NODE":346.2376,"ARG_OF_PERICENTER":94.3244,"MEAN_ANOMALY":265.8074,"EPHEMERIS_TYPE":0,"CLASSIFICATION_TYPE":"U","NORAD_CAT_ID":49279,"ELEMENT_SET_NO":999,"REV_AT_EPOCH":19028,"BSTAR":-0.00032417997,"MEAN_MOTION_DOT":-1.07e-6,"MEAN_MOTION_DDOT":0},{"OBJECT_NAME":"ONEWEB-0347","OBJECT_ID":"2021-090B","EPOCH":"2025-09-06T06:14:01.339008","MEAN_MOTION":13.20770326,"ECCENTRICITY":0.00018448,"INCLINATION":87.9288,"RA_OF_ASC_NODE":331.0438,"ARG_OF_PERICENTER":88.0127,"MEAN_ANOMALY":272.1218,"EPHEMERIS_TYPE":0,"CLASSIFICATION_TYPE":"U","NORAD_CAT_ID":49280,"ELEMENT_SET_NO":999,"REV_AT_EPOCH":19356,"BSTAR":0.00036559633,"MEAN_MOTION_DOT":1.62e-6,"MEAN_MOTION_DDOT":0},{"OBJECT_NAME":"ONEWEB-0349","OBJECT_ID":"2021-090C","EPOCH":"2025-09-06T06:59:28.289760","MEAN_MOTION":13.20769932,"ECCENTRICITY":0.0001797,"INCLINATION":87.9281,"RA_OF_ASC_NODE":331.0387,"ARG_OF_PERICENTER":100.9576,"MEAN_ANOMALY":259.176,"EPHEMERIS_TYPE":0,"CLASSIFICATION_TYPE":"U","NORAD_CAT_ID":49281,"ELEMENT_SET_NO":999,"REV_AT_EPOCH":19235,"BSTAR":0.00012405698,"MEAN_MOTION_DOT":6.3e-7,"MEAN_MOTION_DDOT":0},{"OBJECT_NAME":"ONEWEB-0353","OBJECT_ID":"2021-090D","EPOCH":"2025-09-06T06:59:34.456992","MEAN_MOTION":13.1450387,"ECCENTRICITY":0.00016915,"INCLINATION":87.9085,"RA_OF_ASC_NODE":346.2246,"ARG_OF_PERICENTER":92.6684,"MEAN_ANOMALY":267.464,"EPHEMERIS_TYPE":0,"CLASSIFICATION_TYPE":"U","NORAD_CAT_ID":49282,"ELEMENT_SET_NO":999,"REV_AT_EPOCH":19028,"BSTAR":-0.00032568158,"MEAN_MOTION_DOT":-1.08e-6,"MEAN_MOTION_DDOT":0},{"OBJECT_NAME":"ONEWEB-0356","OBJECT_ID":"2021-090E","EPOCH":"2025-09-06T06:57:12.210624","MEAN_MOTION":13.20770065,"ECCENTRICITY":0.00026553,"INCLINATION":87.9285,"RA_OF_ASC_NODE":331.0307,"ARG_OF_PERICENTER":88.2046,"MEAN_ANOMALY":271.9392,"EPHEMERIS_TYPE":0,"CLASSIFICATION_TYPE":"U","NORAD_CAT_ID":49283,"ELEMENT_SET_NO":999,"REV_AT_EPOCH":19235,"BSTAR":0.00011866737,"MEAN_MOTION_DOT":6.1e-7,"MEAN_MOTION_DDOT":0},{"OBJECT_NAME":"ONEWEB-0358","OBJECT_ID":"2021-090F","EPOCH":"2025-09-06T05:51:17.807040","MEAN_MOTION":13.20770628,"ECCENTRICITY":0.00020172,"INCLINATION":87.9293,"RA_OF_ASC_NODE":331.0323,"ARG_OF_PERICENTER":100.3071,"MEAN_ANOMALY":259.829,"EPHEMERIS_TYPE":0,"CLASSIFICATION_TYPE":"U","NORAD_CAT_ID":49284,"ELEMENT_SET_NO":999,"REV_AT_EPOCH":19307,"BSTAR":0.00031402357,"MEAN_MOTION_DOT":1.41e-6,"MEAN_MOTION_DDOT":0},{"OBJECT_NAME":"ONEWEB-0359","OBJECT_ID":"2021-090G","EPOCH":"2025-09-06T05:46:44.674176","MEAN_MOTION":13.20773481,"ECCENTRICITY":0.00021777,"INCLINATION":87.9279,"RA_OF_ASC_NODE":331.0406,"ARG_OF_PERICENTER":108.0868,"MEAN_ANOMALY":252.0502,"EPHEMERIS_TYPE":0,"CLASSIFICATION_TYPE":"U","NORAD_CAT_ID":49285,"ELEMENT_SET_NO":999,"REV_AT_EPOCH":19305,"BSTAR":0.00019674792,"MEAN_MOTION_DOT":9.3e-7,"MEAN_MOTION_DDOT":0},{"OBJECT_NAME":"ONEWEB-0360","OBJECT_ID":"2021-090H","EPOCH":"2025-09-06T05:33:08.539776","MEAN_MOTION":13.20754621,"ECCENTRICITY":0.00020862,"INCLINATION":87.9281,"RA_OF_ASC_NODE":331.0516,"ARG_OF_PERICENTER":111.7487,"MEAN_ANOMALY":248.3868,"EPHEMERIS_TYPE":0,"CLASSIFICATION_TYPE":"U","NORAD_CAT_ID":49286,"ELEMENT_SET_NO":999,"REV_AT_EPOCH":19236,"BSTAR":0.0089912504,"MEAN_MOTION_DOT":3.669e-5,"MEAN_MOTION_DDOT":0},{"OBJECT_NAME":"ONEWEB-0361","OBJECT_ID":"2021-090J","EPOCH":"2025-09-06T06:54:55.481760","MEAN_MOTION":13.2077392,"ECCENTRICITY":0.00020144,"INCLINATION":87.9288,"RA_OF_ASC_NODE":331.0361,"ARG_OF_PERICENTER":96.5767,"MEAN_ANOMALY":263.5596,"EPHEMERIS_TYPE":0,"CLASSIFICATION_TYPE":"U","NORAD_CAT_ID":49287,"ELEMENT_SET_NO":999,"REV_AT_EPOCH":19282,"BSTAR":0.00018440916,"MEAN_MOTION_DOT":8.8e-7,"MEAN_MOTION_DDOT":0},{"OBJECT_NAME":"ONEWEB-0362","OBJECT_ID":"2021-090K","EPOCH":"2025-09-06T05:50:23.341344","MEAN_MOTION":13.19723181,"ECCENTRICITY":0.00016559,"INCLINATION":87.9281,"RA_OF_ASC_NODE":1.4466,"ARG_OF_PERICENTER":104.696,"MEAN_ANOMALY":255.4357,"EPHEMERIS_TYPE":0,"CLASSIFICATION_TYPE":"U","NORAD_CAT_ID":49288,"ELEMENT_SET_NO":999,"REV_AT_EPOCH":18946,"BSTAR":0.00020925518,"MEAN_MOTION_DOT":9.7e-7,"MEAN_MOTION_DDOT":0},{"OBJECT_NAME":"ONEWEB-0363","OBJECT_ID":"2021-090L","EPOCH":"2025-09-06T05:28:34.092768","MEAN_MOTION":13.20774044,"ECCENTRICITY":0.00022712,"INCLINATION":87.9287,"RA_OF_ASC_NODE":331.0438,"ARG_OF_PERICENTER":95.4154,"MEAN_ANOMALY":264.7239,"EPHEMERIS_TYPE":0,"CLASSIFICATION_TYPE":"U","NORAD_CAT_ID":49289,"ELEMENT_SET_NO":999,"REV_AT_EPOCH":19282,"BSTAR":0.00012269075,"MEAN_MOTION_DOT":6.3e-7,"MEAN_MOTION_DDOT":0},{"OBJECT_NAME":"ONEWEB-0364","OBJECT_ID":"2021-090M","EPOCH":"2025-09-06T06:23:07.940832","MEAN_MOTION":13.20772588,"ECCENTRICITY":0.00020088,"INCLINATION":87.9281,"RA_OF_ASC_NODE":331.0631,"ARG_OF_PERICENTER":96.359,"MEAN_ANOMALY":263.7772,"EPHEMERIS_TYPE":0,"CLASSIFICATION_TYPE":"U","NORAD_CAT_ID":49290,"ELEMENT_SET_NO":999,"REV_AT_EPOCH":19396,"BSTAR":0.00026660033,"MEAN_MOTION_DOT":1.21e-6,"MEAN_MOTION_DDOT":0}]
