ONEWEB-0352             
1 49216U 21083AG  25249.26351365  .00000388  00000+0  10286-2 0  9996
2 49216  87.9012  16.6596 0001261 101.6677 258.4594 13.13470571193756
ONEWEB-0354             
1 49217U 21083AH  25249.27235809 -.00000097  00000+0 -26999-3 0  9990
2 49217  87.9296 331.0275 0002059 106.6442 253.4918 13.20772423199334
ONEWEB-0355             
1 49218U 21083AJ  25249.29242753 -.00000027  00000+0 -10765-3 0  9996
2 49218  87.9028  16.6583 0001600 105.2617 254.8689 13.13468200193630
ONEWEB-0357             
1 49219U 21083AK  25249.26920167 -.00000309  00000+0 -79215-3 0  9994
2 49219  87.9287 331.0290 0001737 103.2482 256.8846 13.20770446199332
ONEWEB-0332             
1 49279U 21090A   25249.29929588 -.00000107  00000+0 -32418-3 0  9997
2 49279  87.9094 346.2376 0001648  94.3244 265.8074 13.14503321190281
ONEWEB-0347             
1 49280U 21090B   25249.25973772  .00000162  00000+0  36560-3 0  9990
2 49280  87.9288 331.0438 0001844  88.0127 272.1218 13.20770326193560
ONEWEB-0349             
1 49281U 21090C   25249.29129965  .00000063  00000+0  12406-3 0  9995
2 49281  87.9281 331.0387 0001797 100.9576 259.1760 13.20769932192350
ONEWEB-0353             
1 49282U 21090D   25249.29137103 -.00000108  00000+0 -32568-3 0  9992
2 49282  87.9085 346.2246 0001691  92.6684 267.4640 13.14503870190284
ONEWEB-0356             
1 49283U 21090E   25249.28972466  .00000061  00000+0  11867-3 0  9996
2 49283  87.9285 331.0307 0002655  88.2046 271.9392 13.20770065192354
ONEWEB-0358             
1 49284U 21090F   25249.24395610  .00000141  00000+0  31402-3 0  9999
2 49284  87.9293 331.0323 0002017 100.3071 259.8290 13.20770628193075
ONEWEB-0359             
1 49285U 21090G   25249.24079484  .00000093  00000+0  19675-3 0  9992
2 49285  87.9279 331.0406 0002177 108.0868 252.0502 13.20773481193057
ONEWEB-0360             
1 49286U 21090H   25249.23134884  .00003669  00000+0  89913-2 0  9991
2 49286  87.9281 331.0516 0002086 111.7487 248.3868 13.20754621192361
ONEWEB-0361             
1 49287U 21090J   25249.28814215  .00000088  00000+0  18441-3 0  9991
2 49287  87.9288 331.0361 0002014  96.5767 263.5596 13.20773920192820
ONEWEB-0362             
1 49288U 21090K   25249.24332571  .00000097  00000+0  20926-3 0  9999
2 49288  87.9281   1.4466 0001655 104.6960 255.4357 13.19723181189467
ONEWEB-0363             
1 49289U 21090L   25249.22817237  .00000063  00000+0  12269-3 0  9999
2 49289  87.9287 331.0438 0002271  95.4154 264.7239 13.20774044192824
ONEWEB-0364             
1 49290U 21090M   25249.26606413  .00000121  00000+0  26660-3 0  9992
2 49290  87.9281 331.0631 0002008  96.3590 263.7772 13.20772588193965
